[{"OBJECT_NAME":"STARLINK-30168","OBJECT_ID":"2023-113U","EPOCH":"2026-03-09T22:00:01.999584","MEAN_MOTION":15.26731228,"ECCENTRICITY":0.00014958,"INCLINATION":43.0016,"RA_OF_ASC_NODE":14.4447,"ARG_OF_PERICENTER":256.2569,"MEAN_ANOMALY":102.8203,"EPHEMERIS_TYPE":0,"CLASSIFICATION_TYPE":"U","NORAD_CAT_ID":57513,"ELEMENT_SET_NO":999,"REV_AT_EPOCH":563,"BSTAR":0.0002947252,"MEAN_MOTION_DOT":7.652e-5,"MEAN_MOTION_DDOT":0},{"OBJECT_NAME":"CZ-6A DEB","OBJECT_ID":"2022-151EM","EPOCH":"2026-03-09T21:12:10.844640","MEAN_MOTION":15.1479521,"ECCENTRICITY":0.00732342,"INCLINATION":98.809,"RA_OF_ASC_NODE":212.6624,"ARG_OF_PERICENTER":10.5605,"MEAN_ANOMALY":349.714,"EPHEMERIS_TYPE":0,"CLASSIFICATION_TYPE":"U","NORAD_CAT_ID":54413,"ELEMENT_SET_NO":999,"REV_AT_EPOCH":17915,"BSTAR":0.0020661814,"MEAN_MOTION_DOT":0.00041137,"MEAN_MOTION_DDOT":0}]
